[{"OBJECT_NAME":"ONEWEB-0165","OBJECT_ID":"2021-031Z","EPOCH":"2026-03-07T04:52:50.010240","MEAN_MOTION":13.14502025,"ECCENTRICITY":0.00019355,"INCLINATION":87.8989,"RA_OF_ASC_NODE":310.0582,"ARG_OF_PERICENTER":84.8108,"MEAN_ANOMALY":275.3242,"EPHEMERIS_TYPE":0,"CLASSIFICATION_TYPE":"U","NORAD_CAT_ID":48233,"ELEMENT_SET_NO":999,"REV_AT_EPOCH":23496,"BSTAR":0.00071816154,"MEAN_MOTION_DOT":2.79e-6,"MEAN_MOTION_DDOT":0},{"OBJECT_NAME":"ONEWEB-0199","OBJECT_ID":"2021-031AA","EPOCH":"2026-03-07T04:29:59.573184","MEAN_MOTION":13.14502511,"ECCENTRICITY":0.00014861,"INCLINATION":87.8993,"RA_OF_ASC_NODE":310.0427,"ARG_OF_PERICENTER":84.3892,"MEAN_ANOMALY":275.7407,"EPHEMERIS_TYPE":0,"CLASSIFICATION_TYPE":"U","NORAD_CAT_ID":48234,"ELEMENT_SET_NO":999,"REV_AT_EPOCH":23486,"BSTAR":0.00034147161,"MEAN_MOTION_DOT":1.39e-6,"MEAN_MOTION_DDOT":0},{"OBJECT_NAME":"ONEWEB-0203","OBJECT_ID":"2021-031AB","EPOCH":"2026-03-07T04:16:17.291424","MEAN_MOTION":13.14499298,"ECCENTRICITY":0.00015895,"INCLINATION":87.9001,"RA_OF_ASC_NODE":310.0443,"ARG_OF_PERICENTER":86.1643,"MEAN_ANOMALY":273.9668,"EPHEMERIS_TYPE":0,"CLASSIFICATION_TYPE":"U","NORAD_CAT_ID":48235,"ELEMENT_SET_NO":999,"REV_AT_EPOCH":23487,"BSTAR":-5.6488054e-5,"MEAN_MOTION_DOT":-8.0e-8,"MEAN_MOTION_DDOT":0},{"OBJECT_NAME":"ONEWEB-0197","OBJECT_ID":"2021-031AC","EPOCH":"2026-03-07T05:29:10.138848","MEAN_MOTION":13.14502346,"ECCENTRICITY":0.00014879,"INCLINATION":87.8992,"RA_OF_ASC_NODE":310.0331,"ARG_OF_PERICENTER":67.9957,"MEAN_ANOMALY":292.1331,"EPHEMERIS_TYPE":0,"CLASSIFICATION_TYPE":"U","NORAD_CAT_ID":48236,"ELEMENT_SET_NO":999,"REV_AT_EPOCH":23479,"BSTAR":-0.00029353921,"MEAN_MOTION_DOT":-9.6e-7,"MEAN_MOTION_DDOT":0},{"OBJECT_NAME":"ONEWEB-0194","OBJECT_ID":"2021-031AD","EPOCH":"2026-03-07T01:20:28.186656","MEAN_MOTION":13.14502239,"ECCENTRICITY":0.00014625,"INCLINATION":87.8996,"RA_OF_ASC_NODE":310.085,"ARG_OF_PERICENTER":87.6233,"MEAN_ANOMALY":272.5064,"EPHEMERIS_TYPE":0,"CLASSIFICATION_TYPE":"U","NORAD_CAT_ID":48237,"ELEMENT_SET_NO":999,"REV_AT_EPOCH":23494,"BSTAR":0.00054365659,"MEAN_MOTION_DOT":2.14e-6,"MEAN_MOTION_DDOT":0},{"OBJECT_NAME":"ONEWEB-0193","OBJECT_ID":"2021-031AE","EPOCH":"2026-03-07T05:22:30.926784","MEAN_MOTION":13.1450278,"ECCENTRICITY":0.0001306,"INCLINATION":87.8993,"RA_OF_ASC_NODE":310.0436,"ARG_OF_PERICENTER":92.9083,"MEAN_ANOMALY":267.2197,"EPHEMERIS_TYPE":0,"CLASSIFICATION_TYPE":"U","NORAD_CAT_ID":48238,"ELEMENT_SET_NO":999,"REV_AT_EPOCH":23491,"BSTAR":-2.5094041e-5,"MEAN_MOTION_DOT":3.0e-8,"MEAN_MOTION_DDOT":0},{"OBJECT_NAME":"ONEWEB-0191","OBJECT_ID":"2021-031AF","EPOCH":"2026-03-07T05:38:29.879520","MEAN_MOTION":13.14502788,"ECCENTRICITY":0.0001546,"INCLINATION":87.8994,"RA_OF_ASC_NODE":310.0365,"ARG_OF_PERICENTER":79.2237,"MEAN_ANOMALY":280.9067,"EPHEMERIS_TYPE":0,"CLASSIFICATION_TYPE":"U","NORAD_CAT_ID":48239,"ELEMENT_SET_NO":999,"REV_AT_EPOCH":23477,"BSTAR":-0.00029309632,"MEAN_MOTION_DOT":-9.6e-7,"MEAN_MOTION_DDOT":0},{"OBJECT_NAME":"ONEWEB-0195","OBJECT_ID":"2021-031AG","EPOCH":"2026-03-07T05:05:23.704224","MEAN_MOTION":13.14502893,"ECCENTRICITY":0.00020313,"INCLINATION":87.8992,"RA_OF_ASC_NODE":310.0384,"ARG_OF_PERICENTER":83.9567,"MEAN_ANOMALY":276.1795,"EPHEMERIS_TYPE":0,"CLASSIFICATION_TYPE":"U","NORAD_CAT_ID":48240,"ELEMENT_SET_NO":999,"REV_AT_EPOCH":23475,"BSTAR":0.00041362845,"MEAN_MOTION_DOT":1.66e-6,"MEAN_MOTION_DDOT":0},{"OBJECT_NAME":"ONEWEB-0201","OBJECT_ID":"2021-031AH","EPOCH":"2026-03-07T04:48:28.187136","MEAN_MOTION":13.1450251,"ECCENTRICITY":0.00018075,"INCLINATION":87.898,"RA_OF_ASC_NODE":310.0697,"ARG_OF_PERICENTER":70.8844,"MEAN_ANOMALY":289.2482,"EPHEMERIS_TYPE":0,"CLASSIFICATION_TYPE":"U","NORAD_CAT_ID":48241,"ELEMENT_SET_NO":999,"REV_AT_EPOCH":23498,"BSTAR":0.00069168197,"MEAN_MOTION_DOT":2.69e-6,"MEAN_MOTION_DDOT":0},{"OBJECT_NAME":"ONEWEB-0207","OBJECT_ID":"2021-031AJ","EPOCH":"2026-03-07T04:19:44.025888","MEAN_MOTION":13.14504145,"ECCENTRICITY":0.0001668,"INCLINATION":87.8992,"RA_OF_ASC_NODE":310.0446,"ARG_OF_PERICENTER":70.3494,"MEAN_ANOMALY":289.7815,"EPHEMERIS_TYPE":0,"CLASSIFICATION_TYPE":"U","NORAD_CAT_ID":48242,"ELEMENT_SET_NO":999,"REV_AT_EPOCH":23489,"BSTAR":1.868757e-6,"MEAN_MOTION_DOT":1.3e-7,"MEAN_MOTION_DDOT":0},{"OBJECT_NAME":"ONEWEB-0208","OBJECT_ID":"2021-031AK","EPOCH":"2026-03-07T03:53:27.170592","MEAN_MOTION":13.14503139,"ECCENTRICITY":0.00018904,"INCLINATION":87.8994,"RA_OF_ASC_NODE":310.0611,"ARG_OF_PERICENTER":83.2836,"MEAN_ANOMALY":276.8509,"EPHEMERIS_TYPE":0,"CLASSIFICATION_TYPE":"U","NORAD_CAT_ID":48243,"ELEMENT_SET_NO":999,"REV_AT_EPOCH":23490,"BSTAR":-0.0002210005,"MEAN_MOTION_DOT":-6.9e-7,"MEAN_MOTION_DDOT":0},{"OBJECT_NAME":"ONEWEB-0200","OBJECT_ID":"2021-031AL","EPOCH":"2026-03-07T04:50:33.103392","MEAN_MOTION":13.14502132,"ECCENTRICITY":0.00017384,"INCLINATION":87.8987,"RA_OF_ASC_NODE":310.0425,"ARG_OF_PERICENTER":79.0018,"MEAN_ANOMALY":281.1308,"EPHEMERIS_TYPE":0,"CLASSIFICATION_TYPE":"U","NORAD_CAT_ID":48244,"ELEMENT_SET_NO":999,"REV_AT_EPOCH":23483,"BSTAR":0.00070310643,"MEAN_MOTION_DOT":2.73e-6,"MEAN_MOTION_DDOT":0},{"OBJECT_NAME":"ONEWEB-0217","OBJECT_ID":"2021-031AM","EPOCH":"2026-03-07T05:13:23.328768","MEAN_MOTION":13.14502283,"ECCENTRICITY":0.00019708,"INCLINATION":87.8994,"RA_OF_ASC_NODE":310.0389,"ARG_OF_PERICENTER":83.2703,"MEAN_ANOMALY":276.8651,"EPHEMERIS_TYPE":0,"CLASSIFICATION_TYPE":"U","NORAD_CAT_ID":48245,"ELEMENT_SET_NO":999,"REV_AT_EPOCH":23478,"BSTAR":0.00022078384,"MEAN_MOTION_DOT":9.5e-7,"MEAN_MOTION_DDOT":0},{"OBJECT_NAME":"ONEWEB-0211","OBJECT_ID":"2021-045A","EPOCH":"2026-03-07T02:17:39.001920","MEAN_MOTION":13.16143624,"ECCENTRICITY":0.00020152,"INCLINATION":87.8942,"RA_OF_ASC_NODE":279.4881,"ARG_OF_PERICENTER":97.0715,"MEAN_ANOMALY":263.0645,"EPHEMERIS_TYPE":0,"CLASSIFICATION_TYPE":"U","NORAD_CAT_ID":48767,"ELEMENT_SET_NO":999,"REV_AT_EPOCH":23101,"BSTAR":0.0001101124,"MEAN_MOTION_DOT":5.5e-7,"MEAN_MOTION_DDOT":0},{"OBJECT_NAME":"ONEWEB-0223","OBJECT_ID":"2021-045B","EPOCH":"2026-03-07T02:59:02.312448","MEAN_MOTION":13.15548129,"ECCENTRICITY":0.00018496,"INCLINATION":87.895,"RA_OF_ASC_NODE":279.5636,"ARG_OF_PERICENTER":102.8571,"MEAN_ANOMALY":257.2766,"EPHEMERIS_TYPE":0,"CLASSIFICATION_TYPE":"U","NORAD_CAT_ID":48768,"ELEMENT_SET_NO":999,"REV_AT_EPOCH":23098,"BSTAR":0.00037158879,"MEAN_MOTION_DOT":1.53e-6,"MEAN_MOTION_DDOT":0},{"OBJECT_NAME":"ONEWEB-0230","OBJECT_ID":"2021-045C","EPOCH":"2026-03-07T02:17:58.056576","MEAN_MOTION":13.15547792,"ECCENTRICITY":0.00014661,"INCLINATION":87.8939,"RA_OF_ASC_NODE":279.5922,"ARG_OF_PERICENTER":85.6452,"MEAN_ANOMALY":274.4845,"EPHEMERIS_TYPE":0,"CLASSIFICATION_TYPE":"U","NORAD_CAT_ID":48769,"ELEMENT_SET_NO":999,"REV_AT_EPOCH":23124,"BSTAR":0.00022386942,"MEAN_MOTION_DOT":9.7e-7,"MEAN_MOTION_DDOT":0}]
