ONEWEB-0165             
1 48233U 21031Z   26066.20335660  .00000279  00000+0  71816-3 0  9995
2 48233  87.8989 310.0582 0001935  84.8108 275.3242 13.14502025234969
ONEWEB-0199             
1 48234U 21031AA  26066.18749506  .00000139  00000+0  34147-3 0  9992
2 48234  87.8993 310.0427 0001486  84.3892 275.7407 13.14502511234865
ONEWEB-0203             
1 48235U 21031AB  26066.17797791 -.00000008  00000+0 -56488-4 0  9991
2 48235  87.9001 310.0443 0001589  86.1643 273.9668 13.14499298234870
ONEWEB-0197             
1 48236U 21031AC  26066.22858957 -.00000096  00000+0 -29354-3 0  9998
2 48236  87.8992 310.0331 0001487  67.9957 292.1331 13.14502346234797
ONEWEB-0194             
1 48237U 21031AD  26066.05588179  .00000214  00000+0  54366-3 0  9997
2 48237  87.8996 310.0850 0001462  87.6233 272.5064 13.14502239234940
ONEWEB-0193             
1 48238U 21031AE  26066.22396906  .00000003  00000+0 -25094-4 0  9996
2 48238  87.8993 310.0436 0001306  92.9083 267.2197 13.14502780234913
ONEWEB-0191             
1 48239U 21031AF  26066.23506805 -.00000096  00000+0 -29310-3 0  9996
2 48239  87.8994 310.0365 0001546  79.2237 280.9067 13.14502788234771
ONEWEB-0195             
1 48240U 21031AG  26066.21207991  .00000166  00000+0  41363-3 0  9998
2 48240  87.8992 310.0384 0002031  83.9567 276.1795 13.14502893234750
ONEWEB-0201             
1 48241U 21031AH  26066.20032624  .00000269  00000+0  69168-3 0  9994
2 48241  87.8980 310.0697 0001807  70.8844 289.2482 13.14502510234987
ONEWEB-0207             
1 48242U 21031AJ  26066.18037067  .00000013  00000+0  18688-5 0  9998
2 48242  87.8992 310.0446 0001668  70.3494 289.7815 13.14504145234895
ONEWEB-0208             
1 48243U 21031AK  26066.16212003 -.00000069  00000+0 -22100-3 0  9997
2 48243  87.8994 310.0611 0001890  83.2836 276.8509 13.14503139234903
ONEWEB-0200             
1 48244U 21031AL  26066.20177203  .00000273  00000+0  70311-3 0  9997
2 48244  87.8987 310.0425 0001738  79.0018 281.1308 13.14502132234835
ONEWEB-0217             
1 48245U 21031AM  26066.21763112  .00000095  00000+0  22078-3 0  9998
2 48245  87.8994 310.0389 0001970  83.2703 276.8651 13.14502283234782
ONEWEB-0211             
1 48767U 21045A   26066.09559030  .00000055  00000+0  11011-3 0  9991
2 48767  87.8942 279.4881 0002015  97.0715 263.0645 13.16143624231012
ONEWEB-0223             
1 48768U 21045B   26066.12433232  .00000153  00000+0  37159-3 0  9991
2 48768  87.8950 279.5636 0001849 102.8571 257.2766 13.15548129230982
ONEWEB-0230             
1 48769U 21045C   26066.09581084  .00000097  00000+0  22387-3 0  9991
2 48769  87.8939 279.5922 0001466  85.6452 274.4845 13.15547792231243
